[{"OBJECT_NAME":"STARLINK-1470","OBJECT_ID":"2020-038AU","EPOCH":"2026-03-09T14:36:51.476832","MEAN_MOTION":15.2807486,"ECCENTRICITY":0.0002444,"INCLINATION":53.048,"RA_OF_ASC_NODE":174.6971,"ARG_OF_PERICENTER":12.8687,"MEAN_ANOMALY":347.2373,"EPHEMERIS_TYPE":0,"CLASSIFICATION_TYPE":"U","NORAD_CAT_ID":45772,"ELEMENT_SET_NO":999,"REV_AT_EPOCH":31706,"BSTAR":0.0019687,"MEAN_MOTION_DOT":0.00054678,"MEAN_MOTION_DDOT":0},{"OBJECT_NAME":"ELECTRON KICK STAGE R\/B","OBJECT_ID":"2026-015D","EPOCH":"2026-03-09T15:02:18.646944","MEAN_MOTION":14.71860187,"ECCENTRICITY":0.0516686,"INCLINATION":89.0447,"RA_OF_ASC_NODE":277.927,"ARG_OF_PERICENTER":172.5816,"MEAN_ANOMALY":188.3451,"EPHEMERIS_TYPE":0,"CLASSIFICATION_TYPE":"U","NORAD_CAT_ID":67559,"ELEMENT_SET_NO":999,"REV_AT_EPOCH":678,"BSTAR":0.0016475,"MEAN_MOTION_DOT":0.00103651,"MEAN_MOTION_DDOT":8.2583e-7}]
